COMMENT,ORIGINATOR,NORAD_CAT_ID,OBJECT_NAME,OBJECT_TYPE,CLASSIFICATION_TYPE,INTLDES,EPOCH,EPOCH_MICROSECONDS,MEAN_MOTION,ECCENTRICITY,INCLINATION,RA_OF_ASC_NODE,ARG_OF_PERICENTER,MEAN_ANOMALY,EPHEMERIS_TYPE,ELEMENT_SET_NO,REV_AT_EPOCH,BSTAR,MEAN_MOTION_DOT,MEAN_MOTION_DDOT,FILE,TLE_LINE0,TLE_LINE1,TLE_LINE2,OBJECT_ID,OBJECT_NUMBER,SEMIMAJOR_AXIS,PERIOD,APOGEE,PERIGEE,DECAYED
"GENERATED VIA SPACETRACK.ORG API","18 SPCS","55089","SPACEBEE-163","PAYLOAD","U","23001CJ","2023-11-29 04:01:22","677312","15.2901386","0.0012233","97.4528","32.4767","140.7595","219.4533","0","999","5022","0.0016623","0.00047101","0","4113103","0 SPACEBEE-163","1 55089U 23001CJ  23333.16762358  .00047101  00000-0  16623-2 0  9998","2 55089  97.4528  32.4767 0012233 140.7595 219.4533 15.29013860 50226","2023-001CJ","55089","6856.896","94.178","487.149","470.373","0"
"GENERATED VIA SPACETRACK.ORG API","18 SPCS","55089","SPACEBEE-163","PAYLOAD","U","23001CJ","2023-12-01 03:08:22","705440","15.29192674","0.0012137","97.4517","34.4426","133.9142","226.3102","0","999","5052","0.0015166","0.00043178","0","4115795","0 SPACEBEE-163","1 55089U 23001CJ  23335.13081835  .00043178  00000-0  15166-2 0  9992","2 55089  97.4517  34.4426 0012137 133.9142 226.3102 15.29192674 50526","2023-001CJ","55089","6856.361","94.167","486.548","469.905","0"
"GENERATED VIA SPACETRACK.ORG API","18 SPCS","55089","SPACEBEE-163","PAYLOAD","U","23001CJ","2023-12-01 17:16:24","722976","15.29260609","0.0012179","97.4516","35.0323","131.9464","228.2816","0","999","5061","0.0019648","0.00056174","0","4116926","0 SPACEBEE-163","1 55089U 23001CJ  23335.71973059  .00056174  00000-0  19648-2 0  9993","2 55089  97.4516  35.0323 0012179 131.9464 228.2816 15.29260609 50616","2023-001CJ","55089","6856.158","94.163","486.373","469.673","0"
"GENERATED VIA SPACETRACK.ORG API","18 SPCS","55089","SPACEBEE-163","PAYLOAD","U","23001CJ","2023-12-01 17:16:24","722976","15.29260609","0.0012179","97.4516","35.0323","131.9464","228.2816","0","999","5061","0.0019648","0.00056174","0","4116981","0 SPACEBEE-163","1 55089U 23001CJ  23335.71973059  .00056174  00000-0  19648-2 0  9993","2 55089  97.4516  35.0323 0012179 131.9464 228.2816 15.29260609 50616","2023-001CJ","55089","6856.158","94.163","486.373","469.673","0"
"GENERATED VIA SPACETRACK.ORG API","18 SPCS","55089","SPACEBEE-163","PAYLOAD","U","23001CJ","2023-12-02 02:41:44","696832","15.29341245","0.0012173","97.4515","35.4255","130.4518","229.7785","0","999","5067","0.0034999","0.00100961","0","4118449","0 SPACEBEE-163","1 55089U 23001CJ  23336.11232288  .00100961  00000-0  34999-2 0  9990","2 55089  97.4515  35.4255 0012173 130.4518 229.7785 15.29341245 50674","2023-001CJ","55089","6855.917","94.158","486.128","469.437","0"
"GENERATED VIA SPACETRACK.ORG API","18 SPCS","55089","SPACEBEE-163","PAYLOAD","U","23001CJ","2023-12-02 02:41:44","696832","15.29341245","0.0012173","97.4515","35.4255","130.4518","229.7785","0","999","5067","0.0034999","0.00100961","0","4118466","0 SPACEBEE-163","1 55089U 23001CJ  23336.11232288  .00100961  00000-0  34999-2 0  9990","2 55089  97.4515  35.4255 0012173 130.4518 229.7785 15.29341245 50674","2023-001CJ","55089","6855.917","94.158","486.128","469.437","0"
"GENERATED VIA SPACETRACK.ORG API","18 SPCS","55089","SPACEBEE-163","PAYLOAD","U","23001CJ","2023-12-02 16:49:42","381408","15.29380052","0.0012241","97.4514","36.0154","128.4699","231.7641","0","999","5076","0.0011751","0.0003359","0","4119185","0 SPACEBEE-163","1 55089U 23001CJ  23336.70118497  .00033590  00000-0  11751-2 0  9994","2 55089  97.4514  36.0154 0012241 128.4699 231.7641 15.29380052 50764","2023-001CJ","55089","6855.801","94.156","486.059","469.274","0"
"GENERATED VIA SPACETRACK.ORG API","18 SPCS","55089","SPACEBEE-163","PAYLOAD","U","23001CJ","2023-12-02 16:49:42","381408","15.29380052","0.0012241","97.4514","36.0154","128.4699","231.7641","0","999","5076","0.0011751","0.0003359","0","4119201","0 SPACEBEE-163","1 55089U 23001CJ  23336.70118497  .00033590  00000-0  11751-2 0  9994","2 55089  97.4514  36.0154 0012241 128.4699 231.7641 15.29380052 50764","2023-001CJ","55089","6855.801","94.156","486.059","469.274","0"
"GENERATED VIA SPACETRACK.ORG API","18 SPCS","55089","SPACEBEE-163","PAYLOAD","U","23001CJ","2023-12-03 03:49:12","732960","15.29417003","0.0012314","97.4514","36.4736","127.3065","232.93","0","999","5083","0.00096833","0.00027677","0","4120389","0 SPACEBEE-163","1 55089U 23001CJ  23337.15917515  .00027677  00000-0  96833-3 0  9996","2 55089  97.4514  36.4736 0012314 127.3065 232.9300 15.29417003 50830","2023-001CJ","55089","6855.691","94.154","485.998","469.114","0"
"GENERATED VIA SPACETRACK.ORG API","18 SPCS","55089","SPACEBEE-163","PAYLOAD","U","23001CJ","2023-12-04 03:22:23","678976","15.29481566","0.0012238","97.4511","37.4573","123.6108","236.6302","0","999","5098","0.0011257","0.0003227","0","4121512","0 SPACEBEE-163","1 55089U 23001CJ  23338.14055184  .00032270  00000-0  11257-2 0  9992","2 55089  97.4511  37.4573 0012238 123.6108 236.6302 15.29481566 50983","2023-001CJ","55089","6855.498","94.150","485.753","468.973","0"
"GENERATED VIA SPACETRACK.ORG API","18 SPCS","55089","SPACEBEE-163","PAYLOAD","U","23001CJ","2023-12-04 03:22:23","678976","15.29481566","0.0012238","97.4511","37.4573","123.6108","236.6302","0","999","5098","0.0011257","0.0003227","0","4122164","0 SPACEBEE-163","1 55089U 23001CJ  23338.14055184  .00032270  00000-0  11257-2 0  9992","2 55089  97.4511  37.4573 0012238 123.6108 236.6302 15.29481566 50983","2023-001CJ","55089","6855.498","94.150","485.753","468.973","0"
"GENERATED VIA SPACETRACK.ORG API","18 SPCS","55089","SPACEBEE-163","PAYLOAD","U","23001CJ","2023-12-05 02:55:31","225152","15.29541774","0.0012419","97.4506","38.4417","119.3293","240.919","0","999","5113","0.0010373","0.00029777","0","4123878","0 SPACEBEE-163","1 55089U 23001CJ  23339.12188918  .00029777  00000-0  10373-2 0  9999","2 55089  97.4506  38.4417 0012419 119.3293 240.9190 15.29541774 51132","2023-001CJ","55089","6855.318","94.146","485.697","468.669","0"
"GENERATED VIA SPACETRACK.ORG API","18 SPCS","55089","SPACEBEE-163","PAYLOAD","U","23001CJ","2023-12-06 04:02:47","300064","15.29611434","0.0012372","97.4519","39.4902","115.7521","244.4997","0","999","5129","0.0010294","0.00029612","0","4124918","0 SPACEBEE-163","1 55089U 23001CJ  23340.16860301  .00029612  00000-0  10294-2 0  9998","2 55089  97.4519  39.4902 0012372 115.7521 244.4997 15.29611434 51290","2023-001CJ","55089","6855.110","94.142","485.456","468.494","0"
"GENERATED VIA SPACETRACK.ORG API","18 SPCS","55089","SPACEBEE-163","PAYLOAD","U","23001CJ","2023-12-06 04:02:47","300064","15.29611434","0.0012372","97.4519","39.4902","115.7521","244.4997","0","999","5129","0.0010294","0.00029612","0","4125534","0 SPACEBEE-163","1 55089U 23001CJ  23340.16860301  .00029612  00000-0  10294-2 0  9998","2 55089  97.4519  39.4902 0012372 115.7521 244.4997 15.29611434 51290","2023-001CJ","55089","6855.110","94.142","485.456","468.494","0"
"GENERATED VIA SPACETRACK.ORG API","18 SPCS","55089","SPACEBEE-163","PAYLOAD","U","23001CJ","2023-12-07 03:35:47","633568","15.29668203","0.0012387","97.4519","40.4738","112.839","247.4159","0","999","5144","0.00094242","0.00027142","0","4127218","0 SPACEBEE-163","1 55089U 23001CJ  23341.14985687  .00027142  00000-0  94242-3 0  9994","2 55089  97.4519  40.4738 0012387 112.8390 247.4159 15.29668203 51443","2023-001CJ","55089","6854.940","94.138","485.297","468.314","0"
"GENERATED VIA SPACETRACK.ORG API","18 SPCS","55089","SPACEBEE-163","PAYLOAD","U","23001CJ","2023-12-08 03:08:45","253248","15.29712947","0.0012343","97.4532","41.4597","110.2387","250.0181","0","999","5159","0.00081344","0.00023437","0","4128072","0 SPACEBEE-163","1 55089U 23001CJ  23342.13107932  .00023437  00000-0  81344-3 0  9995","2 55089  97.4532  41.4597 0012343 110.2387 250.0181 15.29712947 51598","2023-001CJ","55089","6854.807","94.135","485.133","468.211","0"
"GENERATED VIA SPACETRACK.ORG API","18 SPCS","55089","SPACEBEE-163","PAYLOAD","U","23001CJ","2023-12-08 03:08:45","253248","15.29712947","0.0012343","97.4532","41.4597","110.2387","250.0181","0","999","5159","0.00081344","0.00023437","0","4128726","0 SPACEBEE-163","1 55089U 23001CJ  23342.13107932  .00023437  00000-0  81344-3 0  9995","2 55089  97.4532  41.4597 0012343 110.2387 250.0181 15.29712947 51598","2023-001CJ","55089","6854.807","94.135","485.133","468.211","0"
"GENERATED VIA SPACETRACK.ORG API","18 SPCS","55089","SPACEBEE-163","PAYLOAD","U","23001CJ","2023-12-09 02:41:40","385472","15.29757175","0.0012964","97.4539","42.4451","108.3496","251.9155","0","999","5174","0.00078991","0.00022792","0","4130247","0 SPACEBEE-163","1 55089U 23001CJ  23343.11227298  .00022792  00000-0  78991-3 0  9999","2 55089  97.4539  42.4451 0012964 108.3496 251.9155 15.29757175 51743","2023-001CJ","55089","6854.675","94.133","485.426","467.653","0"
"GENERATED VIA SPACETRACK.ORG API","18 SPCS","55089","SPACEBEE-163","PAYLOAD","U","23001CJ","2023-12-09 15:15:12","833280","15.29778989","0.0012754","97.4535","42.9687","106.3916","253.8727","0","999","5182","0.00069252","0.00019977","0","4130721","0 SPACEBEE-163","1 55089U 23001CJ  23343.63556520  .00019977  00000-0  69252-3 0  9990","2 55089  97.4535  42.9687 0012754 106.3916 253.8727 15.29778989 51828","2023-001CJ","55089","6854.609","94.131","485.217","467.732","0"
"GENERATED VIA SPACETRACK.ORG API","18 SPCS","55089","SPACEBEE-163","PAYLOAD","U","23001CJ","2023-12-09 15:15:12","833280","15.29778989","0.0012754","97.4535","42.9687","106.3916","253.8727","0","999","5182","0.00069252","0.00019977","0","4130742","0 SPACEBEE-163","1 55089U 23001CJ  23343.63556520  .00019977  00000-0  69252-3 0  9990","2 55089  97.4535  42.9687 0012754 106.3916 253.8727 15.29778989 51828","2023-001CJ","55089","6854.609","94.131","485.217","467.732","0"
